OBJECT_NAME,OBJECT_ID,EPOCH,MEAN_MOTION,ECCENTRICITY,INCLINATION,RA_OF_ASC_NODE,ARG_OF_PERICENTER,MEAN_ANOMALY,EPHEMERIS_TYPE,CLASSIFICATION_TYPE,NORAD_CAT_ID,ELEMENT_SET_NO,REV_AT_EPOCH,BSTAR,MEAN_MOTION_DOT,MEAN_MOTION_DDOT
STARLINK-33976,2025-093Y,2026-07-11T01:59:12.237792,15.27578965,.00027231,43.0042,100.9965,249.7894,110.2665,0,U,63858,999,6668,.51688407E-3,.13988E-3,0
STARLINK-33821,2025-093Z,2026-07-11T03:53:44.381472,15.27560788,.00014976,43.0061,100.7200,260.7243,99.3439,0,U,63859,999,6683,.45184281E-3,.12185E-3,0
STARLINK-33888,2025-093AA,2026-07-10T04:10:16.510080,15.27590518,.00015873,43.0009,106.2320,279.9421,80.1252,0,U,63860,999,6670,.4816348E-3,.13019E-3,0
STARLINK-33896,2025-093AB,2026-07-10T02:43:30.916128,15.27592784,.00020668,43.0011,106.6340,254.4694,105.5930,0,U,63861,999,6647,.54649533E-3,.14813E-3,0
STARLINK-33878,2025-093AC,2026-07-11T03:51:51.927552,15.27594035,.00019522,43.0058,100.7072,244.2835,115.7816,0,U,63862,999,6684,.55675888E-3,.15097E-3,0
STARLINK-33954,2025-093AD,2026-07-11T02:28:51.593952,15.27584410,.00054607,42.9829,101.1739,50.2188,309.9144,0,U,63863,999,6662,.39108044E-3,.10519E-3,0
STARLINK-33863,2025-094A,2026-07-11T15:10:30.689760,14.98328911,.00028911,70.0032,282.1578,262.0284,98.0547,0,U,63864,999,6576,.48340697E-4,.484E-5,0
STARLINK-33897,2025-094B,2026-07-11T16:04:34.053312,14.98334775,.00037605,70.0010,281.8838,269.3868,90.6861,0,U,63865,999,6599,.18746462E-3,.2145E-4,0
STARLINK-34022,2025-094C,2026-07-11T16:22:50.293056,14.98339724,.00035259,70.0016,281.9228,270.3068,89.7687,0,U,63866,999,6577,.24837474E-3,.2873E-4,0
STARLINK-33979,2025-094D,2026-07-11T16:10:34.461408,14.98336056,.00039518,70.0016,281.8995,286.8368,73.2357,0,U,63867,999,6577,-.17475351E-3,-.2178E-4,0
STARLINK-34007,2025-094E,2026-07-11T15:04:29.921376,14.98332482,.00033299,70.0009,282.1404,269.2720,90.8057,0,U,63868,999,6576,.58038045E-4,.6E-5,0
STARLINK-34006,2025-094F,2026-07-11T15:40:47.462304,14.98280307,.00033243,70.0049,281.8232,257.9138,102.1649,0,U,63869,999,6577,-.17396409E-2,-.20763E-3,0
STARLINK-33986,2025-094G,2026-07-11T15:52:46.985952,14.98334641,.00038815,70.0013,281.8505,268.8541,91.2173,0,U,63870,999,6577,.17285262E-3,.197E-4,0
STARLINK-34013,2025-094H,2026-07-11T15:34:30.910368,14.98331084,.00035479,70.0013,281.8138,266.9689,93.1064,0,U,63871,999,6577,.11318523E-3,.1258E-4,0
STARLINK-34059,2025-094J,2026-07-11T14:58:27.987456,14.98349467,.00023348,70.0037,282.1263,273.7509,86.3383,0,U,63872,999,6576,.61792593E-3,.7291E-4,0
STARLINK-33987,2025-094K,2026-07-11T06:09:43.725312,14.98333399,.00034527,70.0010,282.8503,268.7255,91.3509,0,U,63873,999,6571,.11903184E-3,.1328E-4,0
STARLINK-34052,2025-094L,2026-07-11T16:28:37.145856,14.98329544,.00026171,70.0039,281.9426,286.4870,73.6001,0,U,63874,999,6577,.96761445E-4,.1062E-4,0
STARLINK-34023,2025-094M,2026-07-11T17:16:39.057600,14.98336158,.00044746,70.0014,281.6539,255.4088,104.6575,0,U,63875,999,6577,.20045485E-3,.23E-4,0
STARLINK-33778,2025-094P,2026-07-11T16:10:49.104480,14.98343427,.00037654,70.0020,281.8937,277.2538,82.8193,0,U,63877,999,6577,.28936145E-3,.3363E-4,0
STARLINK-33901,2025-094Q,2026-07-11T14:58:45.002208,14.98319693,.0003075,70.0028,282.1201,275.6336,84.4472,0,U,63878,999,6576,.1734011E-4,.114E-5,0
STARLINK-33812,2025-094R,2026-07-11T15:58:33.438720,14.98334503,.00036385,70.0011,281.8621,271.2021,88.8721,0,U,63879,999,6577,.17485144E-3,.1994E-4,0
STARLINK-33779,2025-094S,2026-07-11T16:22:35.015808,14.98358099,.00037636,70.0016,281.9294,274.2419,85.8310,0,U,63880,999,6577,.29299221E-3,.3407E-4,0
STARLINK-33905,2025-094T,2026-07-11T15:22:29.399520,14.98336626,.00037394,70.0011,281.7791,269.0427,91.0303,0,U,63881,999,6577,.99370092E-4,.1093E-4,0
STARLINK-34003,2025-094U,2026-07-11T12:26:03.693120,15.44769729,.00041972,70.0039,230.8375,263.8818,96.1887,0,U,63882,999,6703,.50010773E-3,.23395E-3,0
STARLINK-33968,2025-094V,2026-07-11T15:04:43.854240,14.98335740,.00037364,70.0018,282.1348,263.5324,96.5410,0,U,63883,999,6576,.1457372E-5,-.76E-6,0
STARLINK-33943,2025-094W,2026-07-11T15:16:28.846272,14.98335587,.00043792,70.0000,281.7659,273.7332,86.3326,0,U,63884,999,6577,.25250836E-3,.2922E-4,0
STARLINK-33858,2025-094X,2026-07-11T15:52:32.778336,14.98335287,.00037073,70.0013,281.8515,269.6774,90.3960,0,U,63885,999,6577,.20048183E-3,.23E-4,0
STARLINK-33885,2025-094Y,2026-07-11T15:28:30.166176,14.98332128,.00037385,70.0012,281.7915,268.9103,91.1628,0,U,63886,999,6577,.13836897E-3,.1558E-4,0
STARLINK-33904,2025-094Z,2026-07-11T15:22:43.818816,14.98337497,.00035632,70.0005,281.7766,271.6836,88.3915,0,U,63887,999,6577,.18198367E-3,.2079E-4,0
STARLINK-33981,2025-094AA,2026-07-11T16:16:49.539360,14.98334223,.00034623,70.0015,281.9081,265.9171,94.1593,0,U,63888,999,6577,.12406776E-3,.1388E-4,0
