STARLINK-33976          
1 63858U 25093Y   26192.08278053  .00013988  00000+0  51688-3 0  9991
2 63858  43.0042 100.9965 0002723 249.7894 110.2665 15.27578965 66684
STARLINK-33821          
1 63859U 25093Z   26192.16231923  .00012185  00000+0  45184-3 0  9998
2 63859  43.0061 100.7200 0001497 260.7243  99.3439 15.27560788 66831
STARLINK-33888          
1 63860U 25093AA  26191.17380220  .00013019  00000+0  48163-3 0  9992
2 63860  43.0009 106.2320 0001587 279.9421  80.1252 15.27590518 66700
STARLINK-33896          
1 63861U 25093AB  26191.11355227  .00014813  00000+0  54650-3 0  9997
2 63861  43.0011 106.6340 0002066 254.4694 105.5930 15.27592784 66479
STARLINK-33878          
1 63862U 25093AC  26192.16101768  .00015097  00000+0  55676-3 0  9997
2 63862  43.0058 100.7072 0001952 244.2835 115.7816 15.27594035 66843
STARLINK-33954          
1 63863U 25093AD  26192.10337493  .00010519  00000+0  39108-3 0  9994
2 63863  42.9829 101.1739 0005460  50.2188 309.9144 15.27584410 66620
STARLINK-33863          
1 63864U 25094A   26192.63229965  .00000484  00000+0  48341-4 0  9998
2 63864  70.0032 282.1578 0002891 262.0284  98.0547 14.98328911 65761
STARLINK-33897          
1 63865U 25094B   26192.66983858  .00002145  00000+0  18746-3 0  9991
2 63865  70.0010 281.8838 0003760 269.3868  90.6861 14.98334775 65994
STARLINK-34022          
1 63866U 25094C   26192.68252654  .00002873  00000+0  24837-3 0  9993
2 63866  70.0016 281.9228 0003525 270.3068  89.7687 14.98339724 65778
STARLINK-33979          
1 63867U 25094D   26192.67400997 -.00002178  00000+0 -17475-3 0  9998
2 63867  70.0016 281.8995 0003951 286.8368  73.2357 14.98336056 65774
STARLINK-34007          
1 63868U 25094E   26192.62812409  .00000600  00000+0  58038-4 0  9996
2 63868  70.0009 282.1404 0003329 269.2720  90.8057 14.98332482 65762
STARLINK-34006          
1 63869U 25094F   26192.65332711 -.00020763  00000+0 -17396-2 0  9997
2 63869  70.0049 281.8232 0003324 257.9138 102.1649 14.98280307 65777
STARLINK-33986          
1 63870U 25094G   26192.66165493  .00001970  00000+0  17285-3 0  9996
2 63870  70.0013 281.8505 0003881 268.8541  91.2173 14.98334641 65771
STARLINK-34013          
1 63871U 25094H   26192.64896887  .00001258  00000+0  11319-3 0  9994
2 63871  70.0013 281.8138 0003547 266.9689  93.1064 14.98331084 65773
STARLINK-34059          
1 63872U 25094J   26192.62393504  .00007291  00000+0  61793-3 0  9995
2 63872  70.0037 282.1263 0002334 273.7509  86.3383 14.98349467 65764
STARLINK-33987          
1 63873U 25094K   26192.25675608  .00001328  00000+0  11903-3 0  9996
2 63873  70.0010 282.8503 0003452 268.7255  91.3509 14.98333399 65712
STARLINK-34052          
1 63874U 25094L   26192.68654104  .00001062  00000+0  96761-4 0  9993
2 63874  70.0039 281.9426 0002617 286.4870  73.6001 14.98329544 65773
STARLINK-34023          
1 63875U 25094M   26192.71989650  .00002300  00000+0  20045-3 0  9992
2 63875  70.0014 281.6539 0004474 255.4088 104.6575 14.98336158 65779
STARLINK-33778          
1 63877U 25094P   26192.67417945  .00003363  00000+0  28936-3 0  9999
2 63877  70.0020 281.8937 0003765 277.2538  82.8193 14.98343427 65776
STARLINK-33901          
1 63878U 25094Q   26192.62413197  .00000114  00000+0  17340-4 0  9999
2 63878  70.0028 282.1201 0003075 275.6336  84.4472 14.98319693 65760
STARLINK-33812          
1 63879U 25094R   26192.66566480  .00001994  00000+0  17485-3 0  9994
2 63879  70.0011 281.8621 0003638 271.2021  88.8721 14.98334503 65776
STARLINK-33779          
1 63880U 25094S   26192.68234972  .00003407  00000+0  29299-3 0  9993
2 63880  70.0016 281.9294 0003763 274.2419  85.8310 14.98358099 65770
STARLINK-33905          
1 63881U 25094T   26192.64061805  .00001093  00000+0  99370-4 0  9990
2 63881  70.0011 281.7791 0003739 269.0427  91.0303 14.98336626 65773
STARLINK-34003          
1 63882U 25094U   26192.51809830  .00023395  00000+0  50011-3 0  9992
2 63882  70.0039 230.8375 0004197 263.8818  96.1887 15.44769729 67032
STARLINK-33968          
1 63883U 25094V   26192.62828535 -.00000076  00000+0  14574-5 0  9996
2 63883  70.0018 282.1348 0003736 263.5324  96.5410 14.98335740 65761
STARLINK-33943          
1 63884U 25094W   26192.63644498  .00002922  00000+0  25251-3 0  9995
2 63884  70.0000 281.7659 0004379 273.7332  86.3326 14.98335587 65772
STARLINK-33858          
1 63885U 25094X   26192.66149049  .00002300  00000+0  20048-3 0  9990
2 63885  70.0013 281.8515 0003707 269.6774  90.3960 14.98335287 65773
STARLINK-33885          
1 63886U 25094Y   26192.64479359  .00001558  00000+0  13837-3 0  9991
2 63886  70.0012 281.7915 0003738 268.9103  91.1628 14.98332128 65779
STARLINK-33904          
1 63887U 25094Z   26192.64078494  .00002079  00000+0  18198-3 0  9991
2 63887  70.0005 281.7766 0003563 271.6836  88.3915 14.98337497 65777
STARLINK-33981          
1 63888U 25094AA  26192.67835115  .00001388  00000+0  12407-3 0  9995
2 63888  70.0015 281.9081 0003462 265.9171  94.1593 14.98334223 65778
